TQ3G_L_00008001-01
1 60450U 24374JM  26070.40854167  .00000000  00000+0  00000-0 0  9994
2 60450 101.5000   0.0000 0000000   0.0000   0.0000 12.63142618    19
TQ3G_L_00008001-02
1 60451U 24999MX  26070.40854167  .00000000  00000+0  00000-0 0  9998
2 60451 101.5000   0.0000 0000000   0.0000 120.0000 12.63142618    13
TQ3G_L_00008001-03
1 60452U 26588ES  26070.40854167  .00000000  00000+0  00000-0 0  9995
2 60452 101.5000   0.0000 0000000   0.0000 240.0000 12.63142618    17
TQ3G_L_00008002-01
1 60453U 22004JF  26070.40854167  .00000000  00000+0  00000-0 0  9995
2 60453 101.5000  45.0000 0000000   0.0000  60.0000 12.63142618    17
TQ3G_L_00008002-02
1 60454U 26637XQ  26070.40854167  .00000000  00000+0  00000-0 0  9992
2 60454 101.5000  45.0000 0000000   0.0000 180.0000 12.63142618    11
TQ3G_L_00008002-03
1 60455U 25229TT  26070.40854167  .00000000  00000+0  00000-0 0  9999
2 60455 101.5000  45.0000 0000000   0.0000 300.0000 12.63142618    16
TQ3G_L_00008003-01
1 60456U 26593UE  26070.40854167  .00000000  00000+0  00000-0 0  9995
2 60456 101.5000  90.0000 0000000   0.0000 120.0000 12.63142618    17
TQ3G_L_00008003-02
1 60457U 24261WB  26070.40854167  .00000000  00000+0  00000-0 0  9996
2 60457 101.5000  90.0000 0000000   0.0000 240.0000 12.63142618    11
TQ3G_L_00008003-03
1 60458U 25793VT  26070.40854167  .00000000  00000+0  00000-0 0  9998
2 60458 101.5000  90.0000 0000000   0.0000   0.0000 12.63142618    16
TQ3G_L_00008004-01
1 60459U 25194IZ  26070.40854167  .00000000  00000+0  00000-0 0  9994
2 60459 101.5000 135.0000 0000000   0.0000 180.0000 12.63142618    16
TQ3G_L_00008004-02
1 60460U 26183FZ  26070.40854167  .00000000  00000+0  00000-0 0  9995
2 60460 101.5000 135.0000 0000000   0.0000 300.0000 12.63142618    12
TQ3G_L_00008004-03
1 60461U 23950AE  26070.40854167  .00000000  00000+0  00000-0 0  9995
2 60461 101.5000 135.0000 0000000   0.0000  60.0000 12.63142618    16
TQ3G_L_00008005-01
1 60462U 23070BA  26070.40854167  .00000000  00000+0  00000-0 0  9999
2 60462 101.5000 180.0000 0000000   0.0000 240.0000 12.63142618    17
TQ3G_L_00008005-02
1 60463U 24742HQ  26070.40854167  .00000000  00000+0  00000-0 0  9997
2 60463 101.5000 180.0000 0000000   0.0000   0.0000 12.63142618    12
TQ3G_L_00008005-03
1 60464U 23038LK  26070.40854167  .00000000  00000+0  00000-0 0  9995
2 60464 101.5000 180.0000 0000000   0.0000 120.0000 12.63142618    16
TQ3G_L_00008006-01
1 60465U 23151XP  26070.40854167  .00000000  00000+0  00000-0 0  9992
2 60465 101.5000 225.0000 0000000   0.0000 300.0000 12.63142618    17
TQ3G_L_00008006-02
1 60466U 24524FC  26070.40854167  .00000000  00000+0  00000-0 0  9998
2 60466 101.5000 225.0000 0000000   0.0000  60.0000 12.63142618    11
TQ3G_L_00008006-03
1 60467U 23606BT  26070.40854167  .00000000  00000+0  00000-0 0  9999
2 60467 101.5000 225.0000 0000000   0.0000 180.0000 12.63142618    15
TQ3G_L_00008007-01
1 60468U 22652ED  26070.40854167  .00000000  00000+0  00000-0 0  9990
2 60468 101.5000 270.0000 0000000   0.0000   0.0000 12.63142618    17
TQ3G_L_00008007-02
1 60469U 23999YP  26070.40854167  .00000000  00000+0  00000-0 0  9996
2 60469 101.5000 270.0000 0000000   0.0000 120.0000 12.63142618    11
TQ3G_L_00008007-03
1 60470U 24662M   26070.40854167  .00000000  00000+0  00000-0 0  9996
2 60470 101.5000 270.0000 0000000   0.0000 240.0000 12.63142618    16
TQ3G_L_00008008-01
1 60471U 23270FO  26070.40854167  .00000000  00000+0  00000-0 0  9991
2 60471 101.5000 315.0000 0000000   0.0000  60.0000 12.63142618    17
TQ3G_L_00008008-02
1 60472U 26175VI  26070.40854167  .00000000  00000+0  00000-0 0  9999
2 60472 101.5000 315.0000 0000000   0.0000 180.0000 12.63142618    11
TQ3G_L_00008008-03
1 60473U 25891TL  26070.40854167  .00000000  00000+0  00000-0 0  9994
2 60473 101.5000 315.0000 0000000   0.0000 300.0000 12.63142618    16
